LYNK TOWER 5            
1 59121U 24043Z   26068.92489786  .00009048  00000+0  31902-3 0  9994
2 59121  97.5458 204.7305 0010406 234.6422 125.3846 15.29454506111860
STARLINK-32356          
1 60921U 24154U   26068.86781729  .00000447  00000+0  27208-4 0  9991
2 60921  53.1589 282.9086 0001380  99.4780 260.6377 15.30196309 86377
